"CCSDS_OMM_VERS","COMMENT","CREATION_DATE","ORIGINATOR","OBJECT_NAME","OBJECT_ID","CENTER_NAME","REF_FRAME","TIME_SYSTEM","MEAN_ELEMENT_THEORY","EPOCH","MEAN_MOTION","ECCENTRICITY","INCLINATION","RA_OF_ASC_NODE","ARG_OF_PERICENTER","MEAN_ANOMALY","EPHEMERIS_TYPE","CLASSIFICATION_TYPE","NORAD_CAT_ID","ELEMENT_SET_NO","REV_AT_EPOCH","BSTAR","MEAN_MOTION_DOT","MEAN_MOTION_DDOT","SEMIMAJOR_AXIS","PERIOD","APOAPSIS","PERIAPSIS","OBJECT_TYPE","RCS_SIZE","COUNTRY_CODE","LAUNCH_DATE","SITE","DECAY_DATE","FILE","GP_ID","TLE_LINE0","TLE_LINE1","TLE_LINE2"
"2.0","GENERATED VIA SPACE-TRACK.ORG API","2023-04-04T14:16:12","18 SPCS","CARTOSAT 3","2019-081A","EARTH","TEME","UTC","SGP4","2023-04-04T11:47:25.733184","15.19379056","0.00109780","97.3553","154.4124","272.0426","201.8844","0","U","44804","999","18582","0.00037089000000","0.00007793","0.0000000000000","6885.853","94.776","515.277","500.159","PAYLOAD","LARGE","IND","2019-11-27","SRI",null,"3879714","229436443","0 CARTOSAT 3","1 44804U 19081A   23094.49127006  .00007793  00000-0  37089-3 0  9992","2 44804  97.3553 154.4124 0010978 272.0426 201.8844 15.19379056185820"
"2.0","GENERATED VIA SPACE-TRACK.ORG API","2023-04-04T17:46:53","18 SPCS","CARTOSAT 3","2019-081A","EARTH","TEME","UTC","SGP4","2023-04-04T11:47:25.733184","15.19379056","0.00109780","97.3553","154.4124","272.0426","201.8844","0","U","44804","999","18582","0.00037089000000","0.00007793","0.0000000000000","6885.853","94.776","515.277","500.159","PAYLOAD","LARGE","IND","2019-11-27","SRI",null,"3879974","229461880","0 CARTOSAT 3","1 44804U 19081A   23094.49127006  .00007793  00000-0  37089-3 0  9992","2 44804  97.3553 154.4124 0010978 272.0426 201.8844 15.19379056185820"
"2.0","GENERATED VIA SPACE-TRACK.ORG API","2023-04-04T22:26:14","18 SPCS","CARTOSAT 3","2019-081A","EARTH","TEME","UTC","SGP4","2023-04-04T19:41:02.154912","15.19383569","0.00109570","97.3553","154.7323","270.3480","201.4003","0","U","44804","999","18587","0.00036715000000","0.00007715","0.0000000000000","6885.839","94.775","515.249","500.160","PAYLOAD","LARGE","IND","2019-11-27","SRI",null,"3880019","229469587","0 CARTOSAT 3","1 44804U 19081A   23094.82016383  .00007715  00000-0  36715-3 0  9993","2 44804  97.3553 154.7323 0010957 270.3480 201.4003 15.19383569185874"
"2.0","GENERATED VIA SPACE-TRACK.ORG API","2023-04-05T03:56:47","18 SPCS","CARTOSAT 3","2019-081A","EARTH","TEME","UTC","SGP4","2023-04-04T19:41:02.154912","15.19383569","0.00109570","97.3553","154.7323","270.3480","201.4003","0","U","44804","999","18587","0.00036715000000","0.00007715","0.0000000000000","6885.839","94.775","515.249","500.160","PAYLOAD","LARGE","IND","2019-11-27","SRI",null,"3880211","229492739","0 CARTOSAT 3","1 44804U 19081A   23094.82016383  .00007715  00000-0  36715-3 0  9993","2 44804  97.3553 154.7323 0010957 270.3480 201.4003 15.19383569185874"
"2.0","GENERATED VIA SPACE-TRACK.ORG API","2023-04-05T06:26:13","18 SPCS","CARTOSAT 3","2019-081A","EARTH","TEME","UTC","SGP4","2023-04-05T04:47:58.417152","15.19388155","0.00109520","97.3553","155.1025","269.0531","118.8827","0","U","44804","999","18593","0.00035987000000","0.00007561","0.0000000000000","6885.826","94.775","515.232","500.149","PAYLOAD","LARGE","IND","2019-11-27","SRI",null,"3880232","229500347","0 CARTOSAT 3","1 44804U 19081A   23095.19998168  .00007561  00000-0  35987-3 0  9993","2 44804  97.3553 155.1025 0010952 269.0531 118.8827 15.19388155185933"
"2.0","GENERATED VIA SPACE-TRACK.ORG API","2023-04-05T14:16:12","18 SPCS","CARTOSAT 3","2019-081A","EARTH","TEME","UTC","SGP4","2023-04-05T11:28:43.459392","15.19391687","0.00109560","97.3553","155.3736","267.9393","201.2610","0","U","44804","999","18597","0.00035566000000","0.00007473","0.0000000000000","6885.815","94.775","515.224","500.136","PAYLOAD","LARGE","IND","2019-11-27","SRI",null,"3880619","229508779","0 CARTOSAT 3","1 44804U 19081A   23095.47828078  .00007473  00000-0  35566-3 0  9991","2 44804  97.3553 155.3736 0010956 267.9393 201.2610 15.19391687185976"
"2.0","GENERATED VIA SPACE-TRACK.ORG API","2023-04-05T17:28:40","18 SPCS","CARTOSAT 3","2019-081A","EARTH","TEME","UTC","SGP4","2023-04-05T14:42:55.143072","15.19393344","0.00109810","97.3552","155.5052","267.6145","218.7571","0","U","44804","999","18599","0.00035318000000","0.00007421","0.0000000000000","6885.810","94.775","515.236","500.114","PAYLOAD","LARGE","IND","2019-11-27","SRI",null,"3880853","229533405","0 CARTOSAT 3","1 44804U 19081A   23095.61313823  .00007421  00000-0  35318-3 0  9992","2 44804  97.3552 155.5052 0010981 267.6145 218.7571 15.19393344185991"
"2.0","GENERATED VIA SPACE-TRACK.ORG API","2023-04-05T22:16:12","18 SPCS","CARTOSAT 3","2019-081A","EARTH","TEME","UTC","SGP4","2023-04-05T17:49:19.750080","15.19394787","0.00109700","97.3551","155.6310","266.7406","207.2527","0","U","44804","999","18601","0.00035004000000","0.00007354","0.0000000000000","6885.806","94.775","515.224","500.117","PAYLOAD","LARGE","IND","2019-11-27","SRI",null,"3880936","229543032","0 CARTOSAT 3","1 44804U 19081A   23095.74258970  .00007354  00000-0  35004-3 0  9994","2 44804  97.3551 155.6310 0010970 266.7406 207.2527 15.19394787186016"
"2.0","GENERATED VIA SPACE-TRACK.ORG API","2023-04-06T02:16:32","18 SPCS","CARTOSAT 3","2019-081A","EARTH","TEME","UTC","SGP4","2023-04-05T20:52:02.646912","15.19396376","0.00109690","97.3551","155.7547","266.2416","181.3470","0","U","44804","999","18603","0.00034837000000","0.00007319","0.0000000000000","6885.801","94.774","515.219","500.113","PAYLOAD","LARGE","IND","2019-11-27","SRI",null,"3881153","229566562","0 CARTOSAT 3","1 44804U 19081A   23095.86947508  .00007319  00000-0  34837-3 0  9993","2 44804  97.3551 155.7547 0010969 266.2416 181.3470 15.19396376186030"
"2.0","GENERATED VIA SPACE-TRACK.ORG API","2023-04-06T06:16:18","18 SPCS","CARTOSAT 3","2019-081A","EARTH","TEME","UTC","SGP4","2023-04-06T01:29:13.803648","15.19399099","0.00109990","97.3551","155.9422","265.4732","154.3315","0","U","44804","999","18606","0.00034727000000","0.00007296","0.0000000000000","6885.793","94.774","515.231","500.084","PAYLOAD","LARGE","IND","2019-11-27","SRI",null,"3881180","229574639","0 CARTOSAT 3","1 44804U 19081A   23096.06196532  .00007296  00000-0  34727-3 0  9991","2 44804  97.3551 155.9422 0010999 265.4732 154.3315 15.19399099186065"
"2.0","GENERATED VIA SPACE-TRACK.ORG API","2023-04-06T07:16:13","18 SPCS","CARTOSAT 3","2019-081A","EARTH","TEME","UTC","SGP4","2023-04-06T06:09:16.853184","15.19177746","0.00113550","97.3540","156.1326","267.9514","134.6491","0","U","44804","999","18609","-0.00417280000000","-0.00086891","0.0000000000000","6886.461","94.788","516.146","500.507","PAYLOAD","LARGE","IND","2019-11-27","SRI",null,"3881266","229576317","0 CARTOSAT 3","1 44804U 19081A   23096.25644506 -.00086891  00000-0 -41728-2 0  9999","2 44804  97.3540 156.1326 0011355 267.9514 134.6491 15.19177746186093"
"2.0","GENERATED VIA SPACE-TRACK.ORG API","2023-04-07T06:06:12","18 SPCS","CARTOSAT 3","2019-081A","EARTH","TEME","UTC","SGP4","2023-04-07T04:30:15.286752","15.19224036","0.00116150","97.3543","157.0404","263.6438","188.7731","0","U","44804","999","18623","-0.00047189000000","-0.00010001","0.0000000000000","6886.321","94.785","516.185","500.188","PAYLOAD","LARGE","IND","2019-11-27","SRI",null,"3882057","229647701","0 CARTOSAT 3","1 44804U 19081A   23097.18767693 -.00010001  00000-0 -47189-3 0  9993","2 44804  97.3543 157.0404 0011615 263.6438 188.7731 15.19224036186238"
"2.0","GENERATED VIA SPACE-TRACK.ORG API","2023-04-08T22:56:13","18 SPCS","CARTOSAT 3","2019-081A","EARTH","TEME","UTC","SGP4","2023-04-08T21:57:41.261760","15.19228967","0.00114860","97.3537","158.7217","256.7303","277.0879","0","U","44804","999","18649","-0.00016448000000","-0.00003533","0.0000000000000","6886.307","94.785","516.081","500.262","PAYLOAD","LARGE","IND","2019-11-27","SRI",null,"3883707","229737857","0 CARTOSAT 3","1 44804U 19081A   23098.91506090 -.00003533  00000-0 -16448-3 0  9993","2 44804  97.3537 158.7217 0011486 256.7303 277.0879 15.19228967186491"
"2.0","GENERATED VIA SPACE-TRACK.ORG API","2023-04-10T06:36:13","18 SPCS","CARTOSAT 3","2019-081A","EARTH","TEME","UTC","SGP4","2023-04-10T05:11:04.653312","15.19253362","0.00115400","97.3534","159.9885","252.4092","192.2161","0","U","44804","999","18669","0.00026395000000","0.00005506","0.0000000000000","6886.233","94.783","516.045","500.151","PAYLOAD","LARGE","IND","2019-11-27","SRI",null,"3884689","229814309","0 CARTOSAT 3","1 44804U 19081A   23100.21602608  .00005506  00000-0  26395-3 0  9994","2 44804  97.3534 159.9885 0011540 252.4092 192.2161 15.19253362186692"
"2.0","GENERATED VIA SPACE-TRACK.ORG API","2023-04-11T12:26:12","18 SPCS","CARTOSAT 3","2019-081A","EARTH","TEME","UTC","SGP4","2023-04-11T09:50:16.558368","15.19266765","0.00116150","97.3532","161.1510","248.2639","241.9599","0","U","44804","999","18687","0.00026660000000","0.00005564","0.0000000000000","6886.192","94.783","516.056","500.059","PAYLOAD","LARGE","IND","2019-11-27","SRI",null,"3885590","229888724","0 CARTOSAT 3","1 44804U 19081A   23101.40991387  .00005564  00000-0  26660-3 0  9990","2 44804  97.3532 161.1510 0011615 248.2639 241.9599 15.19266765186871"
"2.0","GENERATED VIA SPACE-TRACK.ORG API","2023-04-12T17:13:11","18 SPCS","CARTOSAT 3","2019-081A","EARTH","TEME","UTC","SGP4","2023-04-12T11:06:20.226240","15.19279925","0.00117150","97.3531","162.1757","243.6695","241.1578","0","U","44804","999","18703","0.00027511000000","0.00005746","0.0000000000000","6886.153","94.782","516.085","499.950","PAYLOAD","LARGE","IND","2019-11-27","SRI",null,"3886349","229977052","0 CARTOSAT 3","1 44804U 19081A   23102.46273410  .00005746  00000-0  27511-3 0  9995","2 44804  97.3531 162.1757 0011715 243.6695 241.1578 15.19279925187036"
